CTC2_L_00590001-01
1 66268U 24795HP  26037.47798611  .00000000  00000+0  00000-0 0  9995
2 66268  55.0000   0.0000 0000000   0.0000   0.0000  6.70625782    14
CTC2_L_00590001-02
1 66269U 25432KE  26037.47798611  .00000000  00000+0  00000-0 0  9995
2 66269  55.0000   0.0000 0000000   0.0000  36.0000  6.70625782    14
CTC2_L_00590001-03
1 66270U 22783YR  26037.47798611  .00000000  00000+0  00000-0 0  9993
2 66270  55.0000   0.0000 0000000   0.0000  72.0000  6.70625782    16
CTC2_L_00590001-04
1 66271U 23862EP  26037.47798611  .00000000  00000+0  00000-0 0  9993
2 66271  55.0000   0.0000 0000000   0.0000 108.0000  6.70625782    17
CTC2_L_00590001-05
1 66272U 26759PL  26037.47798611  .00000000  00000+0  00000-0 0  9992
2 66272  55.0000   0.0000 0000000   0.0000 144.0000  6.70625782    18
CTC2_L_00590001-06
1 66273U 23265MH  26037.47798611  .00000000  00000+0  00000-0 0  9992
2 66273  55.0000   0.0000 0000000   0.0000 180.0000  6.70625782    19
CTC2_L_00590001-07
1 66274U 26657LF  26037.47798611  .00000000  00000+0  00000-0 0  9991
2 66274  55.0000   0.0000 0000000   0.0000 216.0000  6.70625782    10
CTC2_L_00590001-08
1 66275U 22027OH  26037.47798611  .00000000  00000+0  00000-0 0  9999
2 66275  55.0000   0.0000 0000000   0.0000 252.0000  6.70625782    11
CTC2_L_00590001-09
1 66276U 23661G   26037.47798611  .00000000  00000+0  00000-0 0  9995
2 66276  55.0000   0.0000 0000000   0.0000 288.0000  6.70625782    11
CTC2_L_00590001-10
1 66277U 24641GG  26037.47798611  .00000000  00000+0  00000-0 0  9995
2 66277  55.0000   0.0000 0000000   0.0000 324.0000  6.70625782    13
CTC2_L_00590002-01
1 66278U 22235TI  26037.47798611  .00000000  00000+0  00000-0 0  9993
2 66278  55.0000  30.0000 0000000   0.0000  12.0000  6.70625782    11
CTC2_L_00590002-02
1 66279U 22915W   26037.47798611  .00000000  00000+0  00000-0 0  9999
2 66279  55.0000  30.0000 0000000   0.0000  48.0000  6.70625782    11
CTC2_L_00590002-03
1 66280U 23836TT  26037.47798611  .00000000  00000+0  00000-0 0  9994
2 66280  55.0000  30.0000 0000000   0.0000  84.0000  6.70625782    13
CTC2_L_00590002-04
1 66281U 24357KB  26037.47798611  .00000000  00000+0  00000-0 0  9994
2 66281  55.0000  30.0000 0000000   0.0000 120.0000  6.70625782    15
CTC2_L_00590002-05
1 66282U 22350XA  26037.47798611  .00000000  00000+0  00000-0 0  9996
2 66282  55.0000  30.0000 0000000   0.0000 156.0000  6.70625782    15
CTC2_L_00590002-06
1 66283U 22911SR  26037.47798611  .00000000  00000+0  00000-0 0  9990
2 66283  55.0000  30.0000 0000000   0.0000 192.0000  6.70625782    16
CTC2_L_00590002-07
1 66284U 23272OX  26037.47798611  .00000000  00000+0  00000-0 0  9992
2 66284  55.0000  30.0000 0000000   0.0000 228.0000  6.70625782    17
CTC2_L_00590002-08
1 66285U 22455HZ  26037.47798611  .00000000  00000+0  00000-0 0  9995
2 66285  55.0000  30.0000 0000000   0.0000 264.0000  6.70625782    18
CTC2_L_00590002-09
1 66286U 25452LS  26037.47798611  .00000000  00000+0  00000-0 0  9996
2 66286  55.0000  30.0000 0000000   0.0000 300.0000  6.70625782    10
CTC2_L_00590002-10
1 66287U 25578YA  26037.47798611  .00000000  00000+0  00000-0 0  9996
2 66287  55.0000  30.0000 0000000   0.0000 336.0000  6.70625782    10
CTC2_L_00590003-01
1 66288U 25921LU  26037.47798611  .00000000  00000+0  00000-0 0  9999
2 66288  55.0000  60.0000 0000000   0.0000  24.0000  6.70625782    18
CTC2_L_00590003-02
1 66289U 22535NC  26037.47798611  .00000000  00000+0  00000-0 0  9998
2 66289  55.0000  60.0000 0000000   0.0000  60.0000  6.70625782    19
CTC2_L_00590003-03
1 66290U 25144WR  26037.47798611  .00000000  00000+0  00000-0 0  9999
2 66290  55.0000  60.0000 0000000   0.0000  96.0000  6.70625782    10
CTC2_L_00590003-04
1 66291U 26384ZG  26037.47798611  .00000000  00000+0  00000-0 0  9997
2 66291  55.0000  60.0000 0000000   0.0000 132.0000  6.70625782    12
CTC2_L_00590003-05
1 66292U 22070NH  26037.47798611  .00000000  00000+0  00000-0 0  9996
2 66292  55.0000  60.0000 0000000   0.0000 168.0000  6.70625782    12
CTC2_L_00590003-06
1 66293U 23878GW  26037.47798611  .00000000  00000+0  00000-0 0  9994
2 66293  55.0000  60.0000 0000000   0.0000 204.0000  6.70625782    14
CTC2_L_00590003-07
1 66294U 23605CL  26037.47798611  .00000000  00000+0  00000-0 0  9993
2 66294  55.0000  60.0000 0000000   0.0000 240.0000  6.70625782    15
CTC2_L_00590003-08
1 66295U 24796OR  26037.47798611  .00000000  00000+0  00000-0 0  9996
2 66295  55.0000  60.0000 0000000   0.0000 276.0000  6.70625782    15
CTC2_L_00590003-09
1 66296U 25985G   26037.47798611  .00000000  00000+0  00000-0 0  9998
2 66296  55.0000  60.0000 0000000   0.0000 312.0000  6.70625782    17
CTC2_L_00590003-10
1 66297U 26071H   26037.47798611  .00000000  00000+0  00000-0 0  9996
2 66297  55.0000  60.0000 0000000   0.0000 348.0000  6.70625782    17
CTC2_L_00590004-01
1 66298U 25524XW  26037.47798611  .00000000  00000+0  00000-0 0  9999
2 66298  55.0000  90.0000 0000000   0.0000  36.0000  6.70625782    15
CTC2_L_00590004-02
1 66299U 25802QT  26037.47798611  .00000000  00000+0  00000-0 0  9999
2 66299  55.0000  90.0000 0000000   0.0000  72.0000  6.70625782    16
CTC2_L_00590004-03
1 66300U 24740NE  26037.47798611  .00000000  00000+0  00000-0 0  9992
2 66300  55.0000  90.0000 0000000   0.0000 108.0000  6.70625782    19
CTC2_L_00590004-04
1 66301U 22516PH  26037.47798611  .00000000  00000+0  00000-0 0  9992
2 66301  55.0000  90.0000 0000000   0.0000 144.0000  6.70625782    10
CTC2_L_00590004-05
1 66302U 25033DM  26037.47798611  .00000000  00000+0  00000-0 0  9990
2 66302  55.0000  90.0000 0000000   0.0000 180.0000  6.70625782    11
CTC2_L_00590004-06
1 66303U 25794CQ  26037.47798611  .00000000  00000+0  00000-0 0  9995
2 66303  55.0000  90.0000 0000000   0.0000 216.0000  6.70625782    12
CTC2_L_00590004-07
1 66304U 26817ZB  26037.47798611  .00000000  00000+0  00000-0 0  9993
2 66304  55.0000  90.0000 0000000   0.0000 252.0000  6.70625782    13
CTC2_L_00590004-08
1 66305U 26413ER  26037.47798611  .00000000  00000+0  00000-0 0  9996
2 66305  55.0000  90.0000 0000000   0.0000 288.0000  6.70625782    13
CTC2_L_00590004-09
1 66306U 25035WG  26037.47798611  .00000000  00000+0  00000-0 0  9996
2 66306  55.0000  90.0000 0000000   0.0000 324.0000  6.70625782    15
CTC2_L_00590004-10
1 66307U 22574PR  26037.47798611  .00000000  00000+0  00000-0 0  9992
2 66307  55.0000  90.0000 0000000   0.0000   0.0000  6.70625782    17
CTC2_L_00590005-01
1 66308U 25195SQ  26037.47798611  .00000000  00000+0  00000-0 0  9995
2 66308  55.0000 120.0000 0000000   0.0000  48.0000  6.70625782    14
CTC2_L_00590005-02
1 66309U 22636QK  26037.47798611  .00000000  00000+0  00000-0 0  9993
2 66309  55.0000 120.0000 0000000   0.0000  84.0000  6.70625782    15
CTC2_L_00590005-03
1 66310U 26295EC  26037.47798611  .00000000  00000+0  00000-0 0  9990
2 66310  55.0000 120.0000 0000000   0.0000 120.0000  6.70625782    18
CTC2_L_00590005-04
1 66311U 24069SP  26037.47798611  .00000000  00000+0  00000-0 0  9998
2 66311  55.0000 120.0000 0000000   0.0000 156.0000  6.70625782    18
CTC2_L_00590005-05
1 66312U 24166SU  26037.47798611  .00000000  00000+0  00000-0 0  9997
2 66312  55.0000 120.0000 0000000   0.0000 192.0000  6.70625782    19
CTC2_L_00590005-06
1 66313U 26739SA  26037.47798611  .00000000  00000+0  00000-0 0  9996
2 66313  55.0000 120.0000 0000000   0.0000 228.0000  6.70625782    10
CTC2_L_00590005-07
1 66314U 22613HB  26037.47798611  .00000000  00000+0  00000-0 0  9994
2 66314  55.0000 120.0000 0000000   0.0000 264.0000  6.70625782    11
CTC2_L_00590005-08
1 66315U 26155VR  26037.47798611  .00000000  00000+0  00000-0 0  9990
2 66315  55.0000 120.0000 0000000   0.0000 300.0000  6.70625782    13
CTC2_L_00590005-09
1 66316U 22238UM  26037.47798611  .00000000  00000+0  00000-0 0  9999
2 66316  55.0000 120.0000 0000000   0.0000 336.0000  6.70625782    13
CTC2_L_00590005-10
1 66317U 22585WQ  26037.47798611  .00000000  00000+0  00000-0 0  9995
2 66317  55.0000 120.0000 0000000   0.0000  12.0000  6.70625782    15
CTC2_L_00590006-01
1 66318U 23559PE  26037.47798611  .00000000  00000+0  00000-0 0  9998
2 66318  55.0000 150.0000 0000000   0.0000  60.0000  6.70625782    12
CTC2_L_00590006-02
1 66319U 25205BO  26037.47798611  .00000000  00000+0  00000-0 0  9999
2 66319  55.0000 150.0000 0000000   0.0000  96.0000  6.70625782    12
CTC2_L_00590006-03
1 66320U 22257EY  26037.47798611  .00000000  00000+0  00000-0 0  9995
2 66320  55.0000 150.0000 0000000   0.0000 132.0000  6.70625782    15
CTC2_L_00590006-04
1 66321U 25184YB  26037.47798611  .00000000  00000+0  00000-0 0  9998
2 66321  55.0000 150.0000 0000000   0.0000 168.0000  6.70625782    15
CTC2_L_00590006-05
1 66322U 24583ML  26037.47798611  .00000000  00000+0  00000-0 0  9991
2 66322  55.0000 150.0000 0000000   0.0000 204.0000  6.70625782    17
CTC2_L_00590006-06
1 66323U 25489TW  26037.47798611  .00000000  00000+0  00000-0 0  9998
2 66323  55.0000 150.0000 0000000   0.0000 240.0000  6.70625782    18
CTC2_L_00590006-07
1 66324U 23716LV  26037.47798611  .00000000  00000+0  00000-0 0  9990
2 66324  55.0000 150.0000 0000000   0.0000 276.0000  6.70625782    18
CTC2_L_00590006-08
1 66325U 22439SN  26037.47798611  .00000000  00000+0  00000-0 0  9992
2 66325  55.0000 150.0000 0000000   0.0000 312.0000  6.70625782    10
CTC2_L_00590006-09
1 66326U 26736UB  26037.47798611  .00000000  00000+0  00000-0 0  9997
2 66326  55.0000 150.0000 0000000   0.0000 348.0000  6.70625782    10
CTC2_L_00590006-10
1 66327U 24619RB  26037.47798611  .00000000  00000+0  00000-0 0  9996
2 66327  55.0000 150.0000 0000000   0.0000  24.0000  6.70625782    12
CTC2_L_00590007-01
1 66328U 25166WZ  26037.47798611  .00000000  00000+0  00000-0 0  9995
2 66328  55.0000 180.0000 0000000   0.0000  72.0000  6.70625782    19
CTC2_L_00590007-02
1 66329U 24156KI  26037.47798611  .00000000  00000+0  00000-0 0  9994
2 66329  55.0000 180.0000 0000000   0.0000 108.0000  6.70625782    10
